OBJECT_NAME,OBJECT_ID,EPOCH,MEAN_MOTION,ECCENTRICITY,INCLINATION,RA_OF_ASC_NODE,ARG_OF_PERICENTER,MEAN_ANOMALY,EPHEMERIS_TYPE,CLASSIFICATION_TYPE,NORAD_CAT_ID,ELEMENT_SET_NO,REV_AT_EPOCH,BSTAR,MEAN_MOTION_DOT,MEAN_MOTION_DDOT
STARLINK-31081,2023-203Q,2026-06-15T22:01:20.384256,15.27578384,.0002211,43.0079,235.8294,274.0270,86.0329,0,U,58632,999,13977,.20217E-4,.294E-5,0
STARLINK-31022,2023-203R,2026-06-14T21:41:06.196416,15.27572072,.0001092,43.0015,241.9748,278.2074,81.8654,0,U,58633,999,13961,-.76323E-5,-.472E-5,0
STARLINK-31025,2023-203S,2026-06-15T21:23:10.653792,15.27564370,.0000702,43.0014,232.1190,248.0481,112.0296,0,U,58634,999,13981,.33357E-4,.656E-5,0
STARLINK-31018,2023-203T,2026-06-15T20:55:38.938944,15.27572724,.0001103,42.9989,232.9103,271.6723,88.4002,0,U,58635,999,13980,.6662E-4,.1571E-4,0
STARLINK-31008,2023-203U,2026-06-15T20:59:20.706144,15.27579733,.0001292,42.9989,232.9311,278.1780,81.8925,0,U,58636,999,13980,-.71102E-5,-.458E-5,0
STARLINK-31077,2023-203V,2026-06-15T20:50:05.320032,15.27592801,.0001214,43.0007,232.8838,269.8275,90.2438,0,U,58637,999,13980,.11328E-3,.2858E-4,0
STARLINK-31078,2023-203W,2026-06-14T11:47:14.957376,15.27576109,.00011624,42.9996,240.6057,257.8229,102.2493,0,U,58638,999,13836,-.76135486E-4,-.2356E-4,0
STARLINK-31070,2023-203X,2026-06-15T21:04:54.467616,15.27573181,.000107,43.0006,232.9584,275.1068,84.9662,0,U,58639,999,13857,-.10301E-5,-.29E-5,0
STARLINK-31090,2023-203Y,2026-06-15T20:32:46.998528,15.27574213,.00012674,42.9971,225.0078,283.0793,76.9917,0,U,58640,999,13867,.7978415E-5,-.42E-6,0
TIANMU-1 11,2023-205A,2026-06-16T04:50:18.998592,15.26988105,.0009071,97.3441,188.7739,20.5171,339.6430,0,U,58645,999,13737,.1946E-3,.5087E-4,0
TIANMU-1 12,2023-205B,2026-06-16T04:07:36.503328,15.26951644,.0006852,97.3429,188.5006,7.2382,352.8955,0,U,58646,999,13735,.1849E-3,.4822E-4,0
TIANMU-1 13,2023-205C,2026-06-16T03:19:26.051808,15.26805223,.0006017,97.3459,188.7401,345.8022,14.3047,0,U,58647,999,13734,.19582E-3,.5088E-4,0
TIANMU-1 14,2023-205D,2026-06-16T04:32:32.877024,15.26850007,.0006996,97.3392,187.9727,349.4406,10.6685,0,U,58648,999,13735,.18685E-3,.4859E-4,0
SHIYAN-24C 01,2023-206A,2026-05-20T16:49:19.449120,14.98082859,.0002037,97.4041,109.8851,277.5903,82.5089,0,U,58650,999,13119,.10397E-3,.1176E-4,0
SHIYAN-24C 02,2023-206B,2026-05-20T18:23:08.706336,14.98077721,.0001984,97.4047,109.9760,178.8372,181.2857,0,U,58651,999,13120,.83719E-4,.936E-5,0
SHIYAN-24C 03,2023-206C,2026-05-20T18:22:16.943232,14.98098494,.0001696,97.4033,109.9068,106.4949,253.6461,0,U,58652,999,13119,.80671E-4,.901E-5,0
BEIDOU-3 M28,2023-207A,2026-06-13T00:05:10.893120,1.86229633,.0003374,55.7492,62.4443,346.0621,13.9544,0,U,58654,999,1676,0,-.57E-6,0
BEIDOU-3 M26,2023-207B,2026-06-16T00:32:54.959712,1.86229663,.000316,55.7540,62.3289,319.7507,40.2636,0,U,58655,999,1680,0,-.53E-6,0
TIANMU-1 19,2023-208A,2026-06-16T04:13:50.460672,15.31561388,.0003903,97.4509,283.4704,332.7564,27.3472,0,U,58660,999,13717,.22458E-3,.6767E-4,0
TIANMU-1 20,2023-208B,2026-06-16T05:09:23.822784,15.32752498,.0006111,97.4452,284.1436,338.0660,22.0320,0,U,58661,999,13727,.2135E-3,.6676E-4,0
TIANMU-1 21,2023-208C,2026-06-16T03:20:51.008064,15.35061665,.0006027,97.4510,286.7437,328.2160,31.8719,0,U,58662,999,13740,.243E-3,.819E-4,0
TIANMU-1 22,2023-208D,2026-06-16T05:21:15.406272,15.31046882,.0003325,97.4506,283.4543,7.6968,352.4323,0,U,58663,999,13718,.20779E-3,.6155E-4,0
STARLINK-31113,2023-211B,2026-06-15T22:28:14.670624,15.27573295,.0000912,43.0043,250.1387,263.6661,96.4087,0,U,58668,999,13749,-.20723E-5,-.319E-5,0
STARLINK-31128,2023-211C,2026-06-15T22:52:17.624064,15.27574814,.0001918,43.0096,250.2606,272.2305,87.8327,0,U,58669,999,13749,.15429E-5,-.22E-5,0
STARLINK-31083,2023-211D,2026-06-15T22:22:41.513952,15.27572946,.0001164,43.0019,250.1086,279.0926,80.9794,0,U,58670,999,13749,.16923E-4,.204E-5,0
STARLINK-30828,2023-211E,2026-06-15T12:08:00.282048,15.27575200,.00017876,43.0036,252.9272,284.5552,75.5102,0,U,58671,999,13742,.13205607E-4,.101E-5,0
STARLINK-31104,2023-211F,2026-06-16T04:05:50.773920,15.52100525,.0020975,42.9934,235.3789,37.4910,322.7409,0,U,58672,999,13896,.98134E-3,.61472E-3,0
STARLINK-31131,2023-211G,2026-06-15T11:31:12.698976,15.27577906,.00018985,43.0037,242.2168,272.0368,88.0267,0,U,58673,999,13882,.252946E-4,.434E-5,0
STARLINK-31124,2023-211H,2026-06-15T22:33:47.865312,15.27570203,.0000845,43.0027,250.1637,277.8917,82.1839,0,U,58674,999,13749,-.15399E-5,-.304E-5,0
STARLINK-31126,2023-211J,2026-06-15T22:11:35.692224,15.27570466,.0001096,43.0106,250.0389,292.9870,67.0866,0,U,58675,999,13749,-.37766E-4,-.1301E-4,0
