STARLINK-31081          
1 58632U 23203Q   26166.91759704  .00000294  00000+0  20217-4 0  9997
2 58632  43.0079 235.8294 0002211 274.0270  86.0329 15.27578384139775
STARLINK-31022          
1 58633U 23203R   26165.90354394 -.00000472  00000+0 -76323-5 0  9992
2 58633  43.0015 241.9748 0001092 278.2074  81.8654 15.27572072139617
STARLINK-31025          
1 58634U 23203S   26166.89109553  .00000656  00000+0  33357-4 0  9998
2 58634  43.0014 232.1190 0000702 248.0481 112.0296 15.27564370139817
STARLINK-31018          
1 58635U 23203T   26166.87197846  .00001571  00000+0  66620-4 0  9995
2 58635  42.9989 232.9103 0001103 271.6723  88.4002 15.27572724139808
STARLINK-31008          
1 58636U 23203U   26166.87454521 -.00000458  00000+0 -71102-5 0  9999
2 58636  42.9989 232.9311 0001292 278.1780  81.8925 15.27579733139802
STARLINK-31077          
1 58637U 23203V   26166.86811713  .00002858  00000+0  11328-3 0  9995
2 58637  43.0007 232.8838 0001214 269.8275  90.2438 15.27592801139803
STARLINK-31078          
1 58638U 23203W   26165.49114534 -.00002356  00000+0 -76135-4 0  9994
2 58638  42.9996 240.6057 0001162 257.8229 102.2493 15.27576109138365
STARLINK-31070          
1 58639U 23203X   26166.87840819 -.00000290  00000+0 -10301-5 0  9999
2 58639  43.0006 232.9584 0001070 275.1068  84.9662 15.27573181138575
STARLINK-31090          
1 58640U 23203Y   26166.85609952 -.00000042  00000+0  79784-5 0  9994
2 58640  42.9971 225.0078 0001267 283.0793  76.9917 15.27574213138670
TIANMU-1 11             
1 58645U 23205A   26167.20160878  .00005087  00000+0  19460-3 0  9996
2 58645  97.3441 188.7739 0009071  20.5171 339.6430 15.26988105137378
TIANMU-1 12             
1 58646U 23205B   26167.17195027  .00004822  00000+0  18490-3 0  9995
2 58646  97.3429 188.5006 0006852   7.2382 352.8955 15.26951644137355
TIANMU-1 13             
1 58647U 23205C   26167.13849597  .00005088  00000+0  19582-3 0  9998
2 58647  97.3459 188.7401 0006017 345.8022  14.3047 15.26805223137347
TIANMU-1 14             
1 58648U 23205D   26167.18926941  .00004859  00000+0  18685-3 0  9991
2 58648  97.3392 187.9727 0006996 349.4406  10.6685 15.26850007137356
SHIYAN-24C 01           
1 58650U 23206A   26140.70091955  .00001176  00000+0  10397-3 0  9993
2 58650  97.4041 109.8851 0002037 277.5903  82.5089 14.98082859131199
SHIYAN-24C 02           
1 58651U 23206B   26140.76607299  .00000936  00000+0  83719-4 0  9996
2 58651  97.4047 109.9760 0001984 178.8372 181.2857 14.98077721131203
SHIYAN-24C 03           
1 58652U 23206C   26140.76547388  .00000901  00000+0  80671-4 0  9995
2 58652  97.4033 109.9068 0001696 106.4949 253.6461 14.98098494131190
BEIDOU-3 M28            
1 58654U 23207A   26164.00359830 -.00000057  00000+0  00000+0 0  9990
2 58654  55.7492  62.4443 0003374 346.0621  13.9544  1.86229633 16760
BEIDOU-3 M26            
1 58655U 23207B   26167.02285833 -.00000053  00000+0  00000+0 0  9993
2 58655  55.7540  62.3289 0003160 319.7507  40.2636  1.86229663 16808
TIANMU-1 19             
1 58660U 23208A   26167.17627848  .00006767  00000+0  22458-3 0  9994
2 58660  97.4509 283.4704 0003903 332.7564  27.3472 15.31561388137179
TIANMU-1 20             
1 58661U 23208B   26167.21485906  .00006676  00000+0  21350-3 0  9996
2 58661  97.4452 284.1436 0006111 338.0660  22.0320 15.32752498137277
TIANMU-1 21             
1 58662U 23208C   26167.13947926  .00008190  00000+0  24300-3 0  9994
2 58662  97.4510 286.7437 0006027 328.2160  31.8719 15.35061665137401
TIANMU-1 22             
1 58663U 23208D   26167.22309498  .00006155  00000+0  20779-3 0  9996
2 58663  97.4506 283.4543 0003325   7.6968 352.4323 15.31046882137189
STARLINK-31113          
1 58668U 23211B   26166.93628091 -.00000319  00000+0 -20723-5 0  9994
2 58668  43.0043 250.1387 0000912 263.6661  96.4087 15.27573295137491
STARLINK-31128          
1 58669U 23211C   26166.95298176 -.00000220  00000+0  15429-5 0  9991
2 58669  43.0096 250.2606 0001918 272.2305  87.8327 15.27574814137492
STARLINK-31083          
1 58670U 23211D   26166.93242493  .00000204  00000+0  16923-4 0  9992
2 58670  43.0019 250.1086 0001164 279.0926  80.9794 15.27572946137493
STARLINK-30828          
1 58671U 23211E   26166.50555882  .00000101  00000+0  13206-4 0  9992
2 58671  43.0036 252.9272 0001787 284.5552  75.5102 15.27575200137429
STARLINK-31104          
1 58672U 23211F   26167.17072655  .00061472  00000+0  98134-3 0  9999
2 58672  42.9934 235.3789 0020975  37.4910 322.7409 15.52100525138965
STARLINK-31131          
1 58673U 23211G   26166.48000809  .00000434  00000+0  25295-4 0  9995
2 58673  43.0037 242.2168 0001898 272.0368  88.0267 15.27577906138829
STARLINK-31124          
1 58674U 23211H   26166.94013733 -.00000304  00000+0 -15399-5 0  9990
2 58674  43.0027 250.1637 0000845 277.8917  82.1839 15.27570203137497
STARLINK-31126          
1 58675U 23211J   26166.92471866 -.00001301  00000+0 -37766-4 0  9993
2 58675  43.0106 250.0389 0001096 292.9870  67.0866 15.27570466137497
